{"type": "FeatureCollection", "features": [{"type": "Feature", "geometry": {"type": "Polygon", "coordinates": [[[-76.65140571715517, 39.25255607010064], [-76.65120902428951, 39.25268301138396], [-76.65111238813591, 39.25266859932396], [-76.65114229085806, 39.25253958461017], [-76.65131622574462, 39.25249429538605], [-76.65140571715517, 39.25255607010064]]]}, "properties": {}}, {"type": "Feature", "geometry": {"type": "Polygon", "coordinates": [[[-76.65175677294411, 39.25470624690035], [-76.65174814911826, 39.25486052559008], [-76.6515824861641, 39.25477709411203], [-76.65165077235811, 39.25470792136629], [-76.65175677294411, 39.25470624690035]]]}, "properties": {}}, {"type": "Feature", "geometry": {"type": "Polygon", "coordinates": [[[-76.65177847976926, 39.25296834013198], [-76.65184146888728, 39.25300248769848], [-76.65183807400078, 39.25304647927183], [-76.65178988460626, 39.25303635855675], [-76.65177847976926, 39.25296834013198]]]}, "properties": {}}, {"type": "Feature", "geometry": {"type": "Polygon", "coordinates": [[[-76.65606955451594, 39.25426536985863], [-76.6561466576669, 39.254288422942], [-76.65607505684277, 39.254302861527634], [-76.65606955451594, 39.25426536985863]]]}, "properties": {}}, {"type": "Feature", "geometry": {"type": "Polygon", "coordinates": [[[-76.6514217171378, 39.25518015920856], [-76.65158107210233, 39.25517323506887], [-76.65157070994576, 39.25523523570434], [-76.6514217171378, 39.25518015920856]]]}, "properties": {}}, {"type": "Feature", "geometry": {"type": "Polygon", "coordinates": [[[-76.65636496607628, 39.25480165484895], [-76.65653000864128, 39.25489330806309], [-76.6568448211437, 39.25497264577035], [-76.65637844384233, 39.25498666066182], [-76.65636496607628, 39.25480165484895]]]}, "properties": {}}, {"type": "Feature", "geometry": {"type": "Polygon", "coordinates": [[[-76.65142549937269, 39.25413758542855], [-76.65141366967634, 39.2541030301686], [-76.65150232024192, 39.25410170526656], [-76.65142549937269, 39.25413758542855]]]}, "properties": {}}, {"type": "Feature", "geometry": {"type": "Polygon", "coordinates": [[[-76.6544659174182, 39.25340960954729], [-76.65453356105377, 39.253439228584725], [-76.65445952806897, 39.2534443225679], [-76.6544659174182, 39.25340960954729]]]}, "properties": {}}, {"type": "Feature", "geometry": {"type": "Polygon", "coordinates": [[[-76.65675206317775, 39.25443383166014], [-76.65681812186932, 39.25438094339801], [-76.65682558110706, 39.254414671935926], [-76.65675206317775, 39.25443383166014]]]}, "properties": {}}, {"type": "Feature", "geometry": {"type": "Polygon", "coordinates": [[[-76.65407453144091, 39.25406017012526], [-76.65408289464376, 39.254071698473965], [-76.65406917576833, 39.254076244767745], [-76.65407453144091, 39.25406017012526]]]}, "properties": {}}, {"type": "Feature", "geometry": {"type": "Polygon", "coordinates": [[[-76.65760189262377, 39.25533333333334], [-76.65764261868082, 39.255316212465864], [-76.65765193262435, 39.25533333333334], [-76.65760189262377, 39.25533333333334]]]}, "properties": {}}, {"type": "Feature", "geometry": {"type": "Polygon", "coordinates": [[[-76.65251115074645, 39.25407473924029], [-76.65250007348884, 39.25414432683002], [-76.6524135004674, 39.25415057052446], [-76.6524313359336, 39.254092312092794], [-76.65251115074645, 39.25407473924029]]]}, "properties": {}}, {"type": "Feature", "geometry": {"type": "Polygon", "coordinates": [[[-76.65260298595113, 39.254890087200046], [-76.65246060819709, 39.25513866425337], [-76.65231626164368, 39.2551612416339], [-76.65233202649304, 39.25506879836347], [-76.65260298595113, 39.254890087200046]]]}, "properties": {}}, {"type": "Feature", "geometry": {"type": "Polygon", "coordinates": [[[-76.65574324640423, 39.25380877268006], [-76.65574554134523, 39.25400348674204], [-76.65578020499004, 39.254108324274696], [-76.65564381670566, 39.254032220205914], [-76.65567993668154, 39.253820118676536], [-76.65574324640423, 39.25380877268006]]]}, "properties": {}}, {"type": "Feature", "geometry": {"type": "Polygon", "coordinates": [[[-76.65236042284552, 39.254633498030266], [-76.65244447294187, 39.25466702572394], [-76.65245615522946, 39.254700574278466], [-76.65234032852172, 39.25469494838175], [-76.65236042284552, 39.254633498030266]]]}, "properties": {}}, {"type": "Feature", "geometry": {"type": "Polygon", "coordinates": [[[-76.6526949654852, 39.25454084419214], [-76.65278066757041, 39.2544922354926], [-76.65278944827337, 39.254535146125], [-76.6526949654852, 39.25454084419214]]]}, "properties": {}}, {"type": "Feature", "geometry": {"type": "Polygon", "coordinates": [[[-76.65295677396199, 39.25321908786767], [-76.6528917827501, 39.25324924804731], [-76.65288765691474, 39.25322346396572], [-76.65295677396199, 39.25321908786767]]]}, "properties": {}}, {"type": "Feature", "geometry": {"type": "Polygon", "coordinates": [[[-76.65845325899247, 39.25514382432211], [-76.6585195880658, 39.25516609145447], [-76.65845908697922, 39.25517531229595], [-76.65845325899247, 39.25514382432211]]]}, "properties": {}}, {"type": "Feature", "geometry": {"type": "Polygon", "coordinates": [[[-76.6522634307719, 39.253003205788985], [-76.65237888683642, 39.25297867835115], [-76.65237458130356, 39.25302368781392], [-76.6522634307719, 39.253003205788985]]]}, "properties": {}}, {"type": "Feature", "geometry": {"type": "Polygon", "coordinates": [[[-76.65664142476163, 39.25419350125164], [-76.65673236321491, 39.25420804972269], [-76.6566339753626, 39.254220506110514], [-76.65664142476163, 39.25419350125164]]]}, "properties": {}}, {"type": "Feature", "geometry": {"type": "Polygon", "coordinates": [[[-76.65326986956936, 39.25260262616006], [-76.65322762687642, 39.25264733536003], [-76.65312535704594, 39.25262092089119], [-76.65318931675473, 39.25257837286523], [-76.65326986956936, 39.25260262616006]]]}, "properties": {}}, {"type": "Feature", "geometry": {"type": "Polygon", "coordinates": [[[-76.65622480328754, 39.25392164823635], [-76.65627786699642, 39.25391786903095], [-76.65627118232302, 39.25394340245132], [-76.65622480328754, 39.25392164823635]]]}, "properties": {}}, {"type": "Feature", "geometry": {"type": "Polygon", "coordinates": [[[-76.65822684101839, 39.25499668625502], [-76.65826010507732, 39.25500156524915], [-76.65826649837415, 39.25501139411778], [-76.65822684101839, 39.25499668625502]]]}, "properties": {}}, {"type": "Feature", "geometry": {"type": "Polygon", "coordinates": [[[-76.65180637530904, 39.252754672288496], [-76.65165685864056, 39.252740789332655], [-76.65158303773268, 39.252682960743286], [-76.65169243485867, 39.25265406348568], [-76.65180637530904, 39.252754672288496]]]}, "properties": {}}, {"type": "Feature", "geometry": {"type": "Polygon", "coordinates": [[[-76.65514199150721, 39.25361205954322], [-76.65531827569576, 39.25373979896628], [-76.65556961869837, 39.25374055184296], [-76.65552484682911, 39.25394058469192], [-76.65519883149621, 39.253936775045155], [-76.654996764943, 39.253740699485], [-76.65514199150721, 39.25361205954322]]]}, "properties": {}}, {"type": "Feature", "geometry": {"type": "Polygon", "coordinates": [[[-76.65781121900947, 39.2552679372712], [-76.6576755289588, 39.255294295457134], [-76.65765073493402, 39.255173962574645], [-76.657715248848, 39.255171844690665], [-76.65781121900947, 39.2552679372712]]]}, "properties": {}}, {"type": "Feature", "geometry": {"type": "Polygon", "coordinates": [[[-76.65201615268055, 39.25373444388907], [-76.65209311861935, 39.253802832202105], [-76.65192074605632, 39.25386588134225], [-76.65192432588533, 39.253834495676465], [-76.65201615268055, 39.25373444388907]]]}, "properties": {}}, {"type": "Feature", "geometry": {"type": "Polygon", "coordinates": [[[-76.65297968148195, 39.25344317486434], [-76.65305039587855, 39.253605996840214], [-76.65291024486771, 39.25367395454317], [-76.65288019111047, 39.25361149560105], [-76.65297968148195, 39.25344317486434]]]}, "properties": {}}, {"type": "Feature", "geometry": {"type": "Polygon", "coordinates": [[[-76.65254591752432, 39.25367309048199], [-76.65261228213184, 39.253716083249785], [-76.6525389492235, 39.25370635505126], [-76.65254591752432, 39.25367309048199]]]}, "properties": {}}, {"type": "Feature", "geometry": {"type": "Polygon", "coordinates": [[[-76.6511771581757, 39.25346518732108], [-76.65124296527196, 39.25342997810311], [-76.65124666045298, 39.25346029092781], [-76.6511771581757, 39.25346518732108]]]}, "properties": {}}, {"type": "Feature", "geometry": {"type": "Polygon", "coordinates": [[[-76.65267454763143, 39.255168727173896], [-76.65274811446842, 39.25521241582128], [-76.6526681784779, 39.25519199948925], [-76.65267454763143, 39.255168727173896]]]}, "properties": {}}, {"type": "Feature", "geometry": {"type": "Polygon", "coordinates": [[[-76.65371578810792, 39.255014523086224], [-76.65364189860797, 39.25501574367775], [-76.65362330597242, 39.25496792741499], [-76.65371012336959, 39.254940511898894], [-76.65371578810792, 39.255014523086224]]]}, "properties": {}}, {"type": "Feature", "geometry": {"type": "Polygon", "coordinates": [[[-76.65720323665211, 39.25512927420431], [-76.6572576088489, 39.25509679090696], [-76.65724960911417, 39.25513821998643], [-76.65720323665211, 39.25512927420431]]]}, "properties": {}}, {"type": "Feature", "geometry": {"type": "Polygon", "coordinates": [[[-76.65252808095947, 39.25525494229885], [-76.6526184466227, 39.25526116825909], [-76.65257119378174, 39.25529844454861], [-76.65252808095947, 39.25525494229885]]]}, "properties": {}}, {"type": "Feature", "geometry": {"type": "Polygon", "coordinates": [[[-76.65111198643375, 39.25374187367005], [-76.65118324602287, 39.253713980515435], [-76.6511734066445, 39.25376788568881], [-76.65111198643375, 39.25374187367005]]]}, "properties": {}}, {"type": "Feature", "geometry": {"type": "Polygon", "coordinates": [[[-76.65237643654424, 39.25325093286313], [-76.65229016414264, 39.25325704764444], [-76.65227761210731, 39.25318282048297], [-76.65240301650819, 39.25316053206821], [-76.65237643654424, 39.25325093286313]]]}, "properties": {}}, {"type": "Feature", "geometry": {"type": "Polygon", "coordinates": [[[-76.65376390800581, 39.25533333333334], [-76.65380295884292, 39.2553127631501], [-76.65388516989837, 39.25533333333334], [-76.65376390800581, 39.25533333333334]]]}, "properties": {}}, {"type": "Feature", "geometry": {"type": "Polygon", "coordinates": [[[-76.65167288031026, 39.25533333333334], [-76.65167866676023, 39.25519159583013], [-76.651915411238, 39.255293601855584], [-76.65190348120842, 39.25533333333334], [-76.65167288031026, 39.25533333333334]]]}, "properties": {}}, {"type": "Feature", "geometry": {"type": "Polygon", "coordinates": [[[-76.6534567826297, 39.252700634824784], [-76.65353709560355, 39.25296322966372], [-76.65368818599784, 39.25298978417156], [-76.65368813177612, 39.253119144263984], [-76.6538255508022, 39.25310498677436], [-76.65391729815777, 39.253217216441044], [-76.65409755692097, 39.253258581248815], [-76.65408650423967, 39.25337172842638], [-76.6536201812575, 39.25331349808468], [-76.65351831567325, 39.25321496604044], [-76.65337993592175, 39.253245017995766], [-76.65302384378872, 39.25303744886684], [-76.65303243226079, 39.25292889381554], [-76.65315348131004, 39.252913169140584], [-76.65323614677277, 39.25272395467157], [-76.6534567826297, 39.252700634824784]]]}, "properties": {}}, {"type": "Feature", "geometry": {"type": "Polygon", "coordinates": [[[-76.65118708839509, 39.254855568782396], [-76.65125218009092, 39.25481554554135], [-76.65124689453593, 39.254866723192414], [-76.65118708839509, 39.254855568782396]]]}, "properties": {}}, {"type": "Feature", "geometry": {"type": "Polygon", "coordinates": [[[-76.65140895222778, 39.25349507772604], [-76.65147732224722, 39.25351266641811], [-76.65140470853949, 39.25352689197619], [-76.65140895222778, 39.25349507772604]]]}, "properties": {}}, {"type": "Feature", "geometry": {"type": "Polygon", "coordinates": [[[-76.65284472673476, 39.25415000061032], [-76.65296891345453, 39.25417138984347], [-76.65285035431805, 39.25419730127142], [-76.65284472673476, 39.25415000061032]]]}, "properties": {}}, {"type": "Feature", "geometry": {"type": "Polygon", "coordinates": [[[-76.65222997022435, 39.25398284269927], [-76.65226329371352, 39.25404540786809], [-76.65219745392464, 39.25406930750955], [-76.65218859616591, 39.25403676804286], [-76.65222997022435, 39.25398284269927]]]}, "properties": {}}, {"type": "Feature", "geometry": {"type": "Polygon", "coordinates": [[[-76.65588660621545, 39.25396908556028], [-76.65593803484668, 39.25393742204307], [-76.65593471693933, 39.253969633696194], [-76.65588660621545, 39.25396908556028]]]}, "properties": {}}, {"type": "Feature", "geometry": {"type": "Polygon", "coordinates": [[[-76.65728826354948, 39.25533333333334], [-76.65725939598559, 39.25522022832618], [-76.65728329385429, 39.25513395859326], [-76.65737321971923, 39.255160298257294], [-76.65742559831831, 39.25533320211836], [-76.65728826354948, 39.25533333333334]]]}, "properties": {}}, {"type": "Feature", "geometry": {"type": "Polygon", "coordinates": [[[-76.65134140391048, 39.251813542123884], [-76.65139978365121, 39.2517834190102], [-76.6514006064035, 39.25181451779426], [-76.65134140391048, 39.251813542123884]]]}, "properties": {}}, {"type": "Feature", "geometry": {"type": "Polygon", "coordinates": [[[-76.65127773778056, 39.254662677336306], [-76.65134856082915, 39.25468278652239], [-76.65132386116375, 39.254748053993445], [-76.65125479169176, 39.254753269690944], [-76.65127773778056, 39.254662677336306]]]}, "properties": {}}, {"type": "Feature", "geometry": {"type": "Polygon", "coordinates": [[[-76.65355600459283, 39.25452048494788], [-76.65359347988317, 39.25454880126346], [-76.65355153012902, 39.254553002983215], [-76.65355600459283, 39.25452048494788]]]}, "properties": {}}, {"type": "Feature", "geometry": {"type": "MultiPolygon", "coordinates": [[[[-76.651, 39.254480302838125], [-76.65114386667597, 39.25440757217146], [-76.65131611143273, 39.25449758772431], [-76.651, 39.25464620643049], [-76.651, 39.254480302838125]]], [[[-76.651, 39.25471529448316], [-76.65109375799004, 39.254735855949676], [-76.65111221673331, 39.25493122523498], [-76.651, 39.25494636390013], [-76.651, 39.25471529448316]]]]}, "properties": {}}, {"type": "Feature", "geometry": {"type": "Polygon", "coordinates": [[[-76.65892137011404, 39.25527302017612], [-76.65897303773727, 39.2552346930586], [-76.65897400279948, 39.255272077718836], [-76.65892137011404, 39.25527302017612]]]}, "properties": {}}, {"type": "Feature", "geometry": {"type": "Polygon", "coordinates": [[[-76.65397590340368, 39.25309617276609], [-76.65403729837982, 39.25306090934684], [-76.65403365514182, 39.25308862786622], [-76.65397590340368, 39.25309617276609]]]}, "properties": {}}, {"type": "Feature", "geometry": {"type": "Polygon", "coordinates": [[[-76.65342906326036, 39.254794229351674], [-76.65338432630261, 39.25487376571974], [-76.65324327168989, 39.254809406428464], [-76.6533050332478, 39.25476897047531], [-76.65342906326036, 39.254794229351674]]]}, "properties": {}}, {"type": "Feature", "geometry": {"type": "Polygon", "coordinates": [[[-76.65157323815298, 39.25196608643665], [-76.65160373498169, 39.25200800413063], [-76.65155839614883, 39.25200429533886], [-76.65157323815298, 39.25196608643665]]]}, "properties": {}}, {"type": "Feature", "geometry": {"type": "Polygon", "coordinates": [[[-76.65146782596494, 39.25306547065698], [-76.6513957726482, 39.25304565783205], [-76.65137892069895, 39.253009232963635], [-76.6514545401511, 39.25301061855487], [-76.65146782596494, 39.25306547065698]]]}, "properties": {}}, {"type": "Feature", "geometry": {"type": "Polygon", "coordinates": [[[-76.65495029649435, 39.25370265050518], [-76.65491406064919, 39.253780400110244], [-76.654837806951, 39.25374225003204], [-76.65486582364237, 39.253701493359635], [-76.65495029649435, 39.25370265050518]]]}, "properties": {}}, {"type": "Feature", "geometry": {"type": "Polygon", "coordinates": [[[-76.65376767543613, 39.25430707600008], [-76.65379974274143, 39.25432202782269], [-76.65376118558488, 39.2543368921034], [-76.65376767543613, 39.25430707600008]]]}, "properties": {}}, {"type": "Feature", "geometry": {"type": "Polygon", "coordinates": [[[-76.65673125235081, 39.25533333333334], [-76.6566574069569, 39.25530509913211], [-76.65673151018792, 39.25532968606368], [-76.65673125235081, 39.25533333333334]]]}, "properties": {}}, {"type": "Feature", "geometry": {"type": "Polygon", "coordinates": [[[-76.6515800186954, 39.25414853799771], [-76.65156574752388, 39.25421103328268], [-76.65152801865474, 39.254168728432965], [-76.6515800186954, 39.25414853799771]]]}, "properties": {}}, {"type": "Feature", "geometry": {"type": "Polygon", "coordinates": [[[-76.65287410468535, 39.25244444110422], [-76.65303857061473, 39.2525128965165], [-76.65296198136546, 39.25262560402682], [-76.6529930561285, 39.25271968115795], [-76.65284967782871, 39.252867718391926], [-76.6526471522782, 39.25284597118279], [-76.65264561942027, 39.252638137729384], [-76.65272295431822, 39.25257819604993], [-76.65266232125147, 39.25252921575968], [-76.65287410468535, 39.25244444110422]]]}, "properties": {}}, {"type": "Feature", "geometry": {"type": "Polygon", "coordinates": [[[-76.65225838898607, 39.25335667040551], [-76.65216974718682, 39.253388787768344], [-76.65216062017706, 39.25335636279365], [-76.65225838898607, 39.25335667040551]]]}, "properties": {}}, {"type": "Feature", "geometry": {"type": "Polygon", "coordinates": [[[-76.651, 39.251622441287786], [-76.65112034109487, 39.25168891355139], [-76.651, 39.25188362199775], [-76.651, 39.251622441287786]]]}, "properties": {}}, {"type": "Feature", "geometry": {"type": "Polygon", "coordinates": [[[-76.6518870047335, 39.25374921739168], [-76.65193860131242, 39.25375829516531], [-76.65189971733616, 39.25377292637115], [-76.6518870047335, 39.25374921739168]]]}, "properties": {}}, {"type": "Feature", "geometry": {"type": "Polygon", "coordinates": [[[-76.65186071683056, 39.254929473604065], [-76.65191224870351, 39.25497719593993], [-76.65188361868778, 39.25503058245082], [-76.65182555006122, 39.25498662844954], [-76.65186071683056, 39.254929473604065]]]}, "properties": {}}, {"type": "Feature", "geometry": {"type": "Polygon", "coordinates": [[[-76.65873986454288, 39.25507535078329], [-76.65867826930668, 39.25508540717234], [-76.65864308264445, 39.25503870186451], [-76.6586915345679, 39.25503157531949], [-76.65873986454288, 39.25507535078329]]]}, "properties": {}}, {"type": "Feature", "geometry": {"type": "Polygon", "coordinates": [[[-76.65269548403623, 39.253135976042515], [-76.6526106623847, 39.25315344052852], [-76.65253497804247, 39.25308599493473], [-76.65261710188862, 39.25306108037261], [-76.65269548403623, 39.253135976042515]]]}, "properties": {}}, {"type": "Feature", "geometry": {"type": "Polygon", "coordinates": [[[-76.6562391277141, 39.254047513963656], [-76.65629553162577, 39.25401456144553], [-76.65629830679804, 39.25405204512347], [-76.6562391277141, 39.254047513963656]]]}, "properties": {}}, {"type": "Feature", "geometry": {"type": "Polygon", "coordinates": [[[-76.65284760355269, 39.25482435562182], [-76.65315441803162, 39.254848797600964], [-76.65333673189905, 39.25503803607754], [-76.65324473881903, 39.25508916045808], [-76.65292289241366, 39.25491814726792], [-76.65272530719612, 39.25505808916237], [-76.65271992453238, 39.25491622210766], [-76.65284760355269, 39.25482435562182]]]}, "properties": {}}, {"type": "Feature", "geometry": {"type": "Polygon", "coordinates": [[[-76.65423802807508, 39.253173970564454], [-76.65432765178741, 39.25319619248296], [-76.65433426635586, 39.253220152577335], [-76.65424034852502, 39.253230366397325], [-76.65423802807508, 39.253173970564454]]]}, "properties": {}}, {"type": "Feature", "geometry": {"type": "Polygon", "coordinates": [[[-76.65380783466357, 39.253850696828025], [-76.65383953012626, 39.25389885256377], [-76.65378586741672, 39.2538985727422], [-76.65380783466357, 39.253850696828025]]]}, "properties": {}}, {"type": "Feature", "geometry": {"type": "Polygon", "coordinates": [[[-76.65164716418185, 39.25207858841809], [-76.6517291328248, 39.2521111025227], [-76.65170065509714, 39.25221841940499], [-76.65160101188543, 39.25217568496039], [-76.65164716418185, 39.25207858841809]]]}, "properties": {}}, {"type": "Feature", "geometry": {"type": "Polygon", "coordinates": [[[-76.65348022579512, 39.25502410590206], [-76.65345590885401, 39.25506333283857], [-76.65344031877899, 39.25503628810909], [-76.65348022579512, 39.25502410590206]]]}, "properties": {}}, {"type": "Feature", "geometry": {"type": "Polygon", "coordinates": [[[-76.65886105884346, 39.25529504889024], [-76.65881271451148, 39.25528433971771], [-76.65881843590535, 39.255254886828034], [-76.65886105884346, 39.25529504889024]]]}, "properties": {}}, {"type": "Feature", "geometry": {"type": "Polygon", "coordinates": [[[-76.65101128528296, 39.253315920806365], [-76.65105298294677, 39.25326838057281], [-76.65107225444505, 39.2532969129366], [-76.65101128528296, 39.253315920806365]]]}, "properties": {}}, {"type": "Feature", "geometry": {"type": "Polygon", "coordinates": [[[-76.65218262531693, 39.252137299905044], [-76.65248542221991, 39.25225699527832], [-76.65253074848673, 39.252304727841285], [-76.65235917381311, 39.25234998531694], [-76.652297497405, 39.252470794831105], [-76.65215089184294, 39.252455901452365], [-76.65210037822672, 39.252212126296165], [-76.65218262531693, 39.252137299905044]]]}, "properties": {}}, {"type": "Feature", "geometry": {"type": "Polygon", "coordinates": [[[-76.65115818056506, 39.25390297551585], [-76.65106861540843, 39.25394497973835], [-76.65106941751068, 39.25390130747088], [-76.65115818056506, 39.25390297551585]]]}, "properties": {}}, {"type": "Feature", "geometry": {"type": "Polygon", "coordinates": [[[-76.65437764134357, 39.25328473474189], [-76.65456264986722, 39.253240329044665], [-76.65457372900299, 39.25327679681713], [-76.65437764134357, 39.25328473474189]]]}, "properties": {}}, {"type": "Feature", "geometry": {"type": "Polygon", "coordinates": [[[-76.65746626193105, 39.25467393352267], [-76.65740699411194, 39.254774551126786], [-76.65717967355143, 39.254730055383206], [-76.65722296813759, 39.25467431255559], [-76.65746626193105, 39.25467393352267]]]}, "properties": {}}, {"type": "Feature", "geometry": {"type": "Polygon", "coordinates": [[[-76.65896204578762, 39.25533333333334], [-76.65912753586542, 39.25523993285997], [-76.65899829296504, 39.25519222675316], [-76.65902080096662, 39.25512254387559], [-76.65953323240154, 39.25533333333334], [-76.65896204578762, 39.25533333333334]]]}, "properties": {}}, {"type": "Feature", "geometry": {"type": "Polygon", "coordinates": [[[-76.65167981391757, 39.254896471614735], [-76.65169835430665, 39.25500140933649], [-76.65160191123857, 39.25504211716503], [-76.65160877715779, 39.254939899469605], [-76.65167981391757, 39.254896471614735]]]}, "properties": {}}, {"type": "Feature", "geometry": {"type": "Polygon", "coordinates": [[[-76.65565698061846, 39.2536732693831], [-76.65569900585699, 39.25365767241587], [-76.65570618865473, 39.25367207424188], [-76.65565698061846, 39.2536732693831]]]}, "properties": {}}, {"type": "Feature", "geometry": {"type": "Polygon", "coordinates": [[[-76.65218795990246, 39.252904355305546], [-76.6520901479217, 39.25294985338524], [-76.65202035183745, 39.25289309270252], [-76.65211040700684, 39.25282967703024], [-76.65218795990246, 39.252904355305546]]]}, "properties": {}}, {"type": "Feature", "geometry": {"type": "Polygon", "coordinates": [[[-76.65201139197823, 39.25450977141113], [-76.65204877337744, 39.25473742971739], [-76.65183888627841, 39.254818065842365], [-76.65180028341317, 39.25462460691522], [-76.65190051760264, 39.25450623242374], [-76.65201139197823, 39.25450977141113]]]}, "properties": {}}, {"type": "Feature", "geometry": {"type": "Polygon", "coordinates": [[[-76.65113426987845, 39.25410285341095], [-76.65121880013605, 39.254115992726994], [-76.65123052816203, 39.25416532480732], [-76.65114662041981, 39.25416718604127], [-76.65113426987845, 39.25410285341095]]]}, "properties": {}}, {"type": "Feature", "geometry": {"type": "Polygon", "coordinates": [[[-76.65206385894513, 39.25230278133623], [-76.65205686313328, 39.252392214138716], [-76.6519239397578, 39.25239561599808], [-76.65193941758528, 39.252328605960415], [-76.65206385894513, 39.25230278133623]]]}, "properties": {}}, {"type": "Feature", "geometry": {"type": "Polygon", "coordinates": [[[-76.65183066921406, 39.25233259821851], [-76.65184069469882, 39.25232681798898], [-76.65184020278912, 39.25233333449241], [-76.65183066921406, 39.25233259821851]]]}, "properties": {}}, {"type": "Feature", "geometry": {"type": "Polygon", "coordinates": [[[-76.65203510299713, 39.252093555643505], [-76.65188782927741, 39.252156008962196], [-76.65178511129018, 39.25204360460675], [-76.65186278748627, 39.2519873189144], [-76.65203510299713, 39.252093555643505]]]}, "properties": {}}, {"type": "Feature", "geometry": {"type": "Polygon", "coordinates": [[[-76.6552457599764, 39.253466347941036], [-76.65534237178791, 39.25350644552806], [-76.65535090551383, 39.25354038630268], [-76.65527725899561, 39.25354605032059], [-76.6552457599764, 39.253466347941036]]]}, "properties": {}}, {"type": "Feature", "geometry": {"type": "Polygon", "coordinates": [[[-76.65108905309063, 39.251787287224005], [-76.6511241031575, 39.25181519090348], [-76.65108336537389, 39.25181659935508], [-76.65108905309063, 39.251787287224005]]]}, "properties": {}}, {"type": "Feature", "geometry": {"type": "Polygon", "coordinates": [[[-76.65204996125534, 39.253044082594705], [-76.65196355085486, 39.25312729259908], [-76.65189196852393, 39.25310046448934], [-76.65191700260341, 39.25305159365046], [-76.65204996125534, 39.253044082594705]]]}, "properties": {}}, {"type": "Feature", "geometry": {"type": "Polygon", "coordinates": [[[-76.65263144970824, 39.25347151920793], [-76.65269247881177, 39.25346127154885], [-76.65265227215919, 39.25349600694342], [-76.65263144970824, 39.25347151920793]]]}, "properties": {}}, {"type": "Feature", "geometry": {"type": "Polygon", "coordinates": [[[-76.65168894015046, 39.253619268865414], [-76.65171382754198, 39.25368700480456], [-76.65165836533284, 39.25365281375243], [-76.65168894015046, 39.253619268865414]]]}, "properties": {}}, {"type": "Feature", "geometry": {"type": "Polygon", "coordinates": [[[-76.65194945872834, 39.25432192181259], [-76.65199957535012, 39.25430187693856], [-76.65198510199782, 39.25433408064052], [-76.65194945872834, 39.25432192181259]]]}, "properties": {}}, {"type": "Feature", "geometry": {"type": "Polygon", "coordinates": [[[-76.65161929845004, 39.25512799662821], [-76.65167472502755, 39.25509578836657], [-76.65166029005043, 39.25513521809635], [-76.65161929845004, 39.25512799662821]]]}, "properties": {}}, {"type": "Feature", "geometry": {"type": "Polygon", "coordinates": [[[-76.65273818212658, 39.25533333333334], [-76.6527099747821, 39.25530282749073], [-76.6527313903321, 39.255296195422154], [-76.65273818212658, 39.25533333333334]]]}, "properties": {}}, {"type": "Feature", "geometry": {"type": "Polygon", "coordinates": [[[-76.65430740964399, 39.25347539178347], [-76.65437330322482, 39.25349728527536], [-76.65431625220552, 39.25350100774319], [-76.65430740964399, 39.25347539178347]]]}, "properties": {}}, {"type": "Feature", "geometry": {"type": "Polygon", "coordinates": [[[-76.65786872560756, 39.25525336198184], [-76.6578616424072, 39.25531335048557], [-76.65783532221575, 39.25526847320874], [-76.65786872560756, 39.25525336198184]]]}, "properties": {}}, {"type": "Feature", "geometry": {"type": "Polygon", "coordinates": [[[-76.65701964870047, 39.25454123569014], [-76.65708404004391, 39.25449219319276], [-76.65707165861096, 39.2545376764377], [-76.65701964870047, 39.25454123569014]]]}, "properties": {}}, {"type": "Feature", "geometry": {"type": "Polygon", "coordinates": [[[-76.65132395182835, 39.25184769879573], [-76.65134302891903, 39.25193367527866], [-76.65118238079098, 39.25190298814108], [-76.65123374422397, 39.25183827005623], [-76.65132395182835, 39.25184769879573]]]}, "properties": {}}, {"type": "Feature", "geometry": {"type": "Polygon", "coordinates": [[[-76.65260882002056, 39.254314301995294], [-76.65268812494801, 39.25432567820193], [-76.65261464758763, 39.25436497933647], [-76.65260882002056, 39.254314301995294]]]}, "properties": {}}, {"type": "Feature", "geometry": {"type": "Polygon", "coordinates": [[[-76.65460835317778, 39.25533333333334], [-76.65451272795352, 39.25524686823789], [-76.65430132922407, 39.255307961242885], [-76.6541948773362, 39.255176664431765], [-76.65428732645505, 39.255067477156175], [-76.65495357788338, 39.25531121559137], [-76.65460835317778, 39.25533333333334]]]}, "properties": {}}, {"type": "Feature", "geometry": {"type": "Polygon", "coordinates": [[[-76.65226402670493, 39.254857059749504], [-76.65233444565605, 39.25486254947869], [-76.65228474262267, 39.254895309157476], [-76.65226402670493, 39.254857059749504]]]}, "properties": {}}, {"type": "Feature", "geometry": {"type": "Polygon", "coordinates": [[[-76.65410408521048, 39.254040760064676], [-76.65409064794751, 39.25405052173736], [-76.65412104588243, 39.25402097691477], [-76.65410408521048, 39.254040760064676]]]}, "properties": {}}, {"type": "Feature", "geometry": {"type": "Polygon", "coordinates": [[[-76.65467544962203, 39.25346330645181], [-76.65469326062986, 39.25356420794656], [-76.65451338698661, 39.25356226371302], [-76.65457575283943, 39.25345132752967], [-76.65467544962203, 39.25346330645181]]]}, "properties": {}}, {"type": "Feature", "geometry": {"type": "Polygon", "coordinates": [[[-76.65199757378504, 39.2528214176986], [-76.65192496848552, 39.25286480598496], [-76.65183267001274, 39.25278394056864], [-76.65191836990934, 39.25276168896002], [-76.65199757378504, 39.2528214176986]]]}, "properties": {}}, {"type": "Feature", "geometry": {"type": "Polygon", "coordinates": [[[-76.65490150535067, 39.253340501866326], [-76.65494623772486, 39.25333547373119], [-76.65494089783364, 39.25335907798455], [-76.65490150535067, 39.253340501866326]]]}, "properties": {}}]}